NORAD_CAT_ID,OBJECT_NAME,OBJECT_TYPE,EPOCH,MEAN_MOTION,ECCENTRICITY,INCLINATION,RA_OF_ASC_NODE,ARG_OF_PERICENTER,MEAN_ANOMALY,BSTAR,MEAN_MOTION_DOT,MEAN_MOTION_DDOT,TLE_LINE0,TLE_LINE1,TLE_LINE2,SEMIMAJOR_AXIS,PERIOD,APOGEE,PERIGEE,DECAYED
54074.0,STARLINK-5192,PAYLOAD,2022-10-25 16:00:00,15.90113484,0.0031033,53.2174,123.2695,56.1938,170.5112,-0.0042723,-0.01373379,0.00053496,0 STARLINK-5192,1 54074U 22136Z   22298.66667824 -.01373379  53496-3 -42723-2 0  9997,2 54074  53.2174 123.2695 0031033  56.1938 170.5112 15.90113484  1301,6680.102,90.56,322.697,281.237,0.0
54074.0,STARLINK-5192,PAYLOAD,2022-10-25 22:00:01,15.89452588,0.0027566,53.2174,122.0033,56.847,161.5509,-0.0044019,-0.0135531,0.00051895,0 STARLINK-5192,1 54074U 22136Z   22298.91668981 -.01355310  51895-3 -44019-2 0  9996,2 54074  53.2174 122.0033 0027566  56.8470 161.5509 15.89452588  1330,6681.954000000002,90.597,322.238,285.399,0.0
54074.0,STARLINK-5192,PAYLOAD,2022-10-26 06:00:00,15.88584681,0.0024676999999999,53.2174,120.313,56.5847,269.6662,-0.0046282,-0.01354284,0.00051406,0 STARLINK-5192,1 54074U 22136Z   22299.25001157 -.01354284  51406-3 -46282-2 0  9991,2 54074  53.2174 120.3130 0024677  56.5847 269.6662 15.88584681  1399,6684.387,90.647,322.747,289.757,0.0
54074.0,STARLINK-5192,PAYLOAD,2022-10-26 14:00:01,15.87684116,0.0021305,53.2174,118.6263,55.8475,17.2908,-0.0046343,-0.01288079,0.0004653,0 STARLINK-5192,1 54074U 22136Z   22299.58334491 -.01288079  46530-3 -46343-2 0  9995,2 54074  53.2174 118.6263 0021305  55.8475  17.2908 15.87684116  1449,6686.915,90.698,323.026,294.533,0.0
54074.0,STARLINK-5192,PAYLOAD,2022-10-26 22:00:00,15.86840631,0.0017866,53.2176,116.944,53.7184,125.2421,-0.0050483,-0.01337362,0.00049442,0 STARLINK-5192,1 54074U 22136Z   22299.91667824 -.01337362  49442-3 -50483-2 0  9996,2 54074  53.2176 116.9440 0017866  53.7184 125.2421 15.86840631  1300,6689.284000000002,90.746,323.1,299.198,0.0
54074.0,STARLINK-5192,PAYLOAD,2022-10-27 14:00:01,15.85086911,0.0011685999999999,53.2171,113.5801,52.8415,334.7298,-0.0054116999999999,-0.01154307,0.0,0 STARLINK-5192,1 54074U 22136Z   22300.58335648 -.01154307  00000-0 -54117-2 0  9996,2 54074  53.2171 113.5801 0011686  52.8415 334.7298 15.85086911  1301,6694.217,90.847,323.905,308.259,0.0
54074.0,STARLINK-5192,PAYLOAD,2022-10-27 22:00:00,15.84224626,0.0008334,53.2174,111.9046,46.7141,83.4884,-0.0056728,-0.01176578,0.0,0 STARLINK-5192,1 54074U 22136Z   22300.91667824 -.01176578  00000-0 -56728-2 0  9991,2 54074  53.2174 111.9046 0008334  46.7141  83.4884 15.84224626  1306,6696.646,90.896,324.092,312.93,0.0
54074.0,STARLINK-5192,PAYLOAD,2022-10-28 08:00:01,15.8315269,0.0004554999999999,53.2174,109.8078,27.1613,320.0177,-0.0061254,-0.01199735,0.0,0 STARLINK-5192,1 54074U 22136Z   22301.33335648 -.01199735  00000-0 -61254-2 0  9994,2 54074  53.2174 109.8078 0004555  27.1613 320.0177 15.83152690  1726,6699.668000000002,90.958,324.585,318.482,0.0
54074.0,STARLINK-5192,PAYLOAD,2022-10-28 14:00:01,15.82491644,0.0003092,53.2174,108.5535,357.9706,334.5783,-0.0062508,-0.01186745,0.0,0 STARLINK-5192,1 54074U 22136Z   22301.58335648 -.01186745  00000-0 -62508-2 0  9991,2 54074  53.2174 108.5535 0003092 357.9706 334.5783 15.82491644  1303,6701.534000000002,90.996,325.471,321.327,0.0
54074.0,STARLINK-5192,PAYLOAD,2022-10-28 22:00:01,15.81607497,0.0003861,53.2173,106.8842,300.1947,131.9308,-0.0063168999999999,-0.0115465,0.0,0 STARLINK-5192,1 54074U 22136Z   22301.91668981 -.01154650  00000-0 -63169-2 0  9991,2 54074  53.2173 106.8842 0003861 300.1947 131.9308 15.81607497  1301,6704.031,91.047,328.485,323.308,0.0
54074.0,STARLINK-5192,PAYLOAD,2022-10-29 12:00:00,15.80087198,0.0006521,53.2171,103.9622,272.6415,241.1672,-0.0068028,-0.01160104,0.0,0 STARLINK-5192,1 54074U 22136Z   22302.50001157 -.01160104  00000-0 -68028-2 0  9993,2 54074  53.2171 103.9622 0006521 272.6415 241.1672 15.80087198  1309,6708.331,91.134,334.57,325.821,0.0
54074.0,STARLINK-5192,PAYLOAD,2022-10-29 22:00:01,15.79062756,0.0005219,53.2173,101.8831,270.7636,93.7993,-0.0076718,-0.01236859,0.0,0 STARLINK-5192,1 54074U 22136Z   22302.91668981 -.01236859  00000-0 -76718-2 0  9998,2 54074  53.2173 101.8831 0005219 270.7636  93.7993 15.79062756  1305,6711.232,91.193,336.6,329.594,0.0
54074.0,STARLINK-5192,PAYLOAD,2022-10-30 00:00:00,15.78828147,0.0004273,53.2173,101.4665,272.4608,205.9966,-0.0076542,-0.01221889,0.0,0 STARLINK-5192,1 54074U 22136Z   22303.00001157 -.01221889  00000-0 -76542-2 0  9997,2 54074  53.2173 101.4665 0004273 272.4608 205.9966 15.78828147  1987,6711.897,91.207,336.63,330.894,0.0
54074.0,STARLINK-5192,PAYLOAD,2022-10-30 14:00:01,15.772785,0.0002208,53.2174,98.5581,290.0562,264.2248,-0.0078435,-0.01171786,0.0,0 STARLINK-5192,1 54074U 22136Z   22303.58334491 -.01171786  00000-0 -78435-2 0  9993,2 54074  53.2174  98.5581 0002208 290.0562 264.2248 15.77278500  1300,6716.292,91.296,339.64,336.6740000000001,0.0
54074.0,STARLINK-5192,PAYLOAD,2022-10-30 22:00:01,15.76437696,3.21e-05,53.2172,96.9013,12.9289,274.7209,-0.0084171,-0.01205589,0.0,0 STARLINK-5192,1 54074U 22136Z   22303.91668981 -.01205589  00000-0 -84171-2 0  9997,2 54074  53.2172  96.9013 0000321  12.9289 274.7209 15.76437696  1306,6718.68,91.345,340.761,340.329,0.0
54074.0,STARLINK-5192,PAYLOAD,2022-10-31 14:00:01,15.74693999,0.0001329,53.2173,93.5893,55.2047,55.8866,-0.0090342,-0.01199213,0.0,0 STARLINK-5192,1 54074U 22136Z   22304.58334491 -.01199213  00000-0 -90342-2 0  9990,2 54074  53.2173  93.5893 0001329  55.2047  55.8866 15.74693999  1302,6723.639,91.446,346.398,344.611,0.0
54074.0,STARLINK-5192,PAYLOAD,2022-10-31 22:00:01,15.73681588,0.0001465,53.2172,91.9385,62.6725,138.6869,-0.0043748999999999,-0.00585737,0.0,0 STARLINK-5192,1 54074U 22136Z   22304.91668981 -.00585737  00000-0 -43749-2 0  9999,2 54074  53.2172  91.9385 0001465  62.6725 138.6869 15.73681588  2297,6726.522,91.505,349.37300000000016,347.402,0.0
54074.0,STARLINK-5192,PAYLOAD,2022-11-01 06:00:00,15.73144264,0.0001337,53.2171,90.2875,60.9882,229.4212,0.0024328,0.00354787,0.0,0 STARLINK-5192,1 54074U 22136Z   22305.25001157  .00354787  00000-0  24328-2 0  9992,2 54074  53.2171  90.2875 0001337  60.9882 229.4212 15.73144264  2347,6728.054,91.536,350.819,349.02,0.0
54074.0,STARLINK-5192,PAYLOAD,2022-11-01 14:00:01,15.73189205,0.0001761999999999,53.2163,88.6423,61.3086,317.9662,0.00026741,0.00037058,0.0,0 STARLINK-5192,1 54074U 22136Z   22305.58334491  .00037058  00000-0  26741-3 0  9999,2 54074  53.2163  88.6423 0001762  61.3086 317.9662 15.73189205  2392,6727.926,91.534,350.976,348.605,0.0
54074.0,STARLINK-5192,PAYLOAD,2022-11-01 22:00:00,15.73218264,0.0001807,53.2157,86.9936,54.4407,53.7647,0.00068261,0.00096363,0.0,0 STARLINK-5192,1 54074U 22136Z   22305.91667824  .00096363  00000-0  68261-3 0  9992,2 54074  53.2157  86.9936 0001807  54.4407  53.7647 15.73218264  1301,6727.843000000003,91.532,350.9240000000001,348.492,0.0
54074.0,STARLINK-5192,PAYLOAD,2022-11-02 06:00:00,15.73268879,0.0001501999999999,53.2158,85.3418,57.1142,140.089,0.00015378,0.00021079,0.0,0 STARLINK-5192,1 54074U 22136Z   22306.25001157  .00021079  00000-0  15378-3 0  9994,2 54074  53.2158  85.3418 0001502  57.1142 140.0890 15.73268879  2508,6727.699000000001,91.529,350.574,348.55300000000005,0.0
54074.0,STARLINK-5192,PAYLOAD,2022-11-02 14:00:01,15.73314579,0.0001524,53.2167,83.6932,49.7132,236.5046,-0.0007387,-0.00103534,0.0,0 STARLINK-5192,1 54074U 22136Z   22306.58334491 -.00103534  00000-0 -73870-3 0  9990,2 54074  53.2167  83.6932 0001524  49.7132 236.5046 15.73314579  1300,6727.569,91.527,350.459,348.408,0.0
54074.0,STARLINK-5192,PAYLOAD,2022-11-02 22:00:00,15.73245387,0.0001621999999999,53.2159,82.0443,37.7224,337.4958,-0.00031763,-0.00045048,0.0,0 STARLINK-5192,1 54074U 22136Z   22306.91667824 -.00045048  00000-0 -31763-3 0  9996,2 54074  53.2159  82.0443 0001622  37.7224 337.4958 15.73245387  2606,6727.766,91.531,350.722,348.54,0.0
54074.0,STARLINK-5192,PAYLOAD,2022-11-03 14:00:01,15.7329497,0.000157,53.2158,78.7446,35.4802,157.6559,-0.00060072,-0.0008443,0.0,0 STARLINK-5192,1 54074U 22136Z   22307.58334491 -.00084430  00000-0 -60072-3 0  9994,2 54074  53.2158  78.7446 0001570  35.4802 157.6559 15.73294970  1306,6727.624,91.528,350.546,348.43300000000005,0.0
54074.0,STARLINK-5192,PAYLOAD,2022-11-03 22:00:00,15.73244174,0.0001742,53.2152,77.0953,32.338,249.8031,-0.00034221,-0.00048465,0.0,0 STARLINK-5192,1 54074U 22136Z   22307.91667824 -.00048465  00000-0 -34221-3 0  9995,2 54074  53.2152  77.0953 0001742  32.3380 249.8031 15.73244174  1303,6727.769,91.531,350.806,348.462,0.0
54074.0,STARLINK-5192,PAYLOAD,2022-11-04 06:00:00,15.7318164,0.0001557,53.2157,75.4427,39.9482,331.1663,6.398e-05,8.361e-05,0.0,0 STARLINK-5192,1 54074U 22136Z   22308.25001157  .00008361  00000-0  63980-4 0  9998,2 54074  53.2157  75.4427 0001557  39.9482 331.1663 15.73181640  2817,6727.948,91.534,350.86,348.765,0.0
54074.0,STARLINK-5192,PAYLOAD,2022-11-04 14:00:01,15.73213325,0.0001533,53.2166,73.7933,31.5166,68.5101,-0.0015052,-0.00206879,0.0,0 STARLINK-5192,1 54074U 22136Z   22308.58334491 -.00206879  00000-0 -15052-2 0  9995,2 54074  53.2166  73.7933 0001533  31.5166  68.5101 15.73213325  2860,6727.857,91.532,350.754,348.691,0.0
54074.0,STARLINK-5192,PAYLOAD,2022-11-04 22:00:01,15.73217205,0.0001896,53.2157,72.1463,28.7001,160.3267,-0.0006358,-0.00088985,0.0,0 STARLINK-5192,1 54074U 22136Z   22308.91668981 -.00088985  00000-0 -63580-3 0  9992,2 54074  53.2157  72.1463 0001896  28.7001 160.3267 15.73217205  2910,6727.846,91.532,350.987,348.436,0.0
54074.0,STARLINK-5192,PAYLOAD,2022-11-05 14:00:01,15.73116843,0.0002035,53.2158,68.8473,32.3583,334.4222,0.00033681,0.00046746,0.0,0 STARLINK-5192,1 54074U 22136Z   22309.58335648  .00046746  00000-0  33681-3 0  9993,2 54074  53.2158  68.8473 0002035  32.3583 334.4222 15.73116843  1309,6728.132,91.538,351.366,348.62800000000016,0.0
